APRIZESAT 2             
1 28366U 04025A   26166.89311440  .00000129  00000+0  53468-4 0  9998
2 28366  98.1013 332.9468 0104315 253.8013 105.1676 14.38035358151452
SAUDICOMSAT 1           
1 28369U 04025D   26166.98505362  .00000323  00000+0  85012-4 0  9995
2 28369  98.5771 177.0841 0032731  29.2539 331.0481 14.55472972163951
SAUDICOMSAT 2           
1 28370U 04025E   26166.95200110  .00000206  00000+0  65054-4 0  9991
2 28370  98.6641 179.1633 0054158 263.3161  96.1866 14.49980630159927
APRIZESAT 1             
1 28372U 04025G   26166.98519334  .00000189  00000+0  58557-4 0  9997
2 28372  98.6303 177.6781 0045030 157.4589 202.8597 14.51776454161736
NANOSAT-1               
1 28493U 04049B   26166.88467266  .00000864  00000+0  12109-3 0  9994
2 28493  98.2274 303.5138 0002880 308.5928  51.5025 14.80157378155256
SAUDICOMSAT 7           
1 31119U 07012C   26166.88429491  .00000358  00000+0  73380-4 0  9991
2 31119  98.3778 140.9894 0055197 199.3194 160.5917 14.66109160 22240
SAUDICOMSAT 6           
1 31121U 07012E   26166.85884014  .00000506  00000+0  10645-3 0  9996
2 31121  98.4098 134.3505 0071146 331.9466  27.7909 14.62556968 19994
SAUDICOMSAT 5           
1 31124U 07012H   26166.85956333  .00000522  00000+0  98329-4 0  9997
2 31124  98.3488 141.7115 0048399 128.7907 231.7635 14.68154913 23408
SAUDICOMSAT 3           
1 31125U 07012J   26166.89047730  .00000735  00000+0  12793-3 0  9990
2 31125  98.3143 142.2914 0040294  57.2094 303.2983 14.70703918 24634
SAUDICOMSAT 4           
1 31127U 07012L   26166.85651680  .00000382  00000+0  80185-4 0  9992
2 31127  98.3983 139.3998 0062058 262.4697  96.9453 14.64511132 21091
APRIZESAT 4             
1 35684U 09041D   26166.70611754  .00000561  00000+0  73668-4 0  9997
2 35684  98.1413 241.9971 0042490 327.9564  31.9066 14.83877623911142
APRIZESAT 3             
1 35686U 09041F   26166.89522227  .00001499  00000+0  13350-3 0  9997
2 35686  98.2058 320.0571 0062771  71.9171 288.8874 14.96237581916185
S-NET D                 
1 43186U 18014G   26166.81248589  .00004611  00000+0  23884-3 0  9991
2 43186  97.5368  71.6120 0009068  34.6040 325.5782 15.16662220458559
S-NET B                 
1 43187U 18014H   26166.69195685  .00004610  00000+0  23898-3 0  9990
2 43187  97.5375  71.4791 0009593  30.0139 330.1642 15.16631190458539
S-NET A                 
1 43188U 18014J   26166.67941938  .00004720  00000+0  24433-3 0  9997
2 43188  97.5384  71.6748 0009496  30.7169 329.4618 15.16669188458538
S-NET C                 
1 43189U 18014K   26166.69582504  .00004628  00000+0  23990-3 0  9994
2 43189  97.5400  71.7655 0010630  22.5845 337.5854 15.16623430457089
SALSAT                  
1 46495U 20068K   26166.77190721  .00006667  00000+0  23385-3 0  9997
2 46495  97.8844 169.7502 0008124 314.2855  45.7717 15.29782498315143
OOV-CUBE (TUBSAT-30)    
1 60240U 24128F   26166.59161287  .00001776  00000+0  14516-3 0  9999
2 60240  61.9945 231.1374 0044790 133.3400 227.1438 15.02768887105877
LPNTSAT-001 (IOD-1)     
1 68408U 26065A   26166.62707880  .00002574  00000+0  12752-3 0  9991
2 68408  97.4019  47.1702 0016819  16.1673 344.0094 15.18531496 12020
